<?xml version="1.0" encoding="UTF-8"?>
<kml xmlns="http://www.opengis.net/kml/2.2"><Document><name>清邁按摩總圖</name><Folder><name>夜市/長康路</name><Placemark><name>健康樂園 Health Land</name><description><![CDATA[曼谷知名連鎖，CNN評選最幸福按摩店之一；空間大、技師多，6人同時預約最容易，CP值高。官網或電話可預約。<br>地址：288/55 Changklan Rd, Chang Khlan, Mueang Chiang Mai 50100<br>價格：2小時泰式約700～900銖<br>營業：09:00-23:00（官網）<br>電話：053-278855<br>預約：https://www.klook.com/zh-TW/activity/31359-health-land-spa-treatments-chiang-mai/]]></description><Point><coordinates>98.9995,18.78,0</coordinates></Point></Placemark><Placemark><name>Makkha 夜市店</name><description><![CDATA[就在民宿所在的 Loi Kroh 路上，晚上逛夜市前後最方便。<br>地址：105 Loi Kroh Rd, Chang Khlan, Mueang Chiang Mai 50100<br>價格：泰式60分約790銖起<br>營業：10:00-23:00（最後預約22:00）]]></description><Point><coordinates>98.9972,18.7863,0</coordinates></Point></Placemark><Placemark><name>Fah Lanna 夜市店</name><description><![CDATA[Loi Kroh 路上，離民宿步行可到。<br>地址：163 Loy Kroh Rd, Chang Khlan, Mueang Chiang Mai 50100<br>價格：泰式2小時約1,500銖起<br>營業：12:00-21:00（最後預約20:00）<br>預約：https://www.klook.com/zh-TW/search/result/?query=Fah%20Lanna%20Spa]]></description><Point><coordinates>98.9958,18.7866,0</coordinates></Point></Placemark><Placemark><name>Let&#x27;s Relax 夜市店</name><description><![CDATA[位在 Pavilion 夜市商場內，逛完長康路夜市直接按。<br>地址：145/37 Changklan Rd, Chang Khlan, Mueang Chiang Mai 50100<br>價格：泰式2小時約1,200銖起<br>營業：10:00-24:00<br>電話：+66 53 818 498<br>預約：https://www.klook.com/zh-TW/search/result/?query=Let%27s%20Relax%20Chiang%20Mai]]></description><Point><coordinates>99.0006,18.7848,0</coordinates></Point></Placemark></Folder><Folder><name>古城</name><Placemark><name>Makkha 週日夜市店</name><description><![CDATA[清邁在地SPA品牌，蘭納風格建築、隱私佳；位在週日夜市主街Rachadamnoen路上。<br>地址：145/4 Rachadamnoen Rd, Si Phum, Mueang Chiang Mai 50200<br>價格：泰式60分約790銖起、精油60分約1,390銖起<br>營業：10:00-24:00<br>預約：https://www.klook.com/zh-TW/activity/108447-makkha-health-spa-rachadamnoen-chiang-mai-thailand/]]></description><Point><coordinates>98.9842,18.7882,0</coordinates></Point></Placemark><Placemark><name>Makkha 古宅店</name><description><![CDATA[百年柚木古宅改建，拍照好看，是Makkha最有氣氛的分店。<br>地址：38/1 Soi Ratchamanka 8, Phra Sing, Mueang Chiang Mai 50200<br>價格：泰式60分約790銖起<br>營業：10:00-23:00（最後預約22:00）<br>預約：https://www.klook.com/activity/74964-makkha-health-spa-experience-chiang-mai/]]></description><Point><coordinates>98.9868,18.7848,0</coordinates></Point></Placemark><Placemark><name>Makkha 殖民花園店</name><description><![CDATA[殖民風格庭園建築，古城西南側、靠近帕辛寺。<br>地址：4 Sam Lan 2 Alley, Phra Sing, Mueang Chiang Mai 50200<br>價格：泰式60分約790銖起<br>營業：10:00-23:00]]></description><Point><coordinates>98.983,18.7842,0</coordinates></Point></Placemark><Placemark><name>Fah Lanna 古城本店</name><description><![CDATA[清邁最受歡迎的SPA之一，蘭納村落造景、草本蒸氣室被Time Out評為城內最大最好；Klook評價數極多，旺季要早訂。<br>地址：57 Wiang Kaew Rd, Si Phum, Mueang Chiang Mai 50200<br>價格：泰式2小時約1,500銖起、精油2小時約2,900銖起<br>營業：約10:00-22:00<br>預約：https://www.klook.com/zh-TW/search/result/?query=Fah%20Lanna%20Spa]]></description><Point><coordinates>98.9876,18.7944,0</coordinates></Point></Placemark><Placemark><name>Oasis 蘭納古城店</name><description><![CDATA[度假村式獨棟SPA，環境最精緻、適合想奢侈一次的行程。<br>地址：4 Samlarn Rd, Phra Sing, Mueang Chiang Mai 50200<br>價格：泰式2小時約1,700銖起、「蘭納秘密」2小時約2,700銖<br>營業：10:00-22:00<br>預約：https://www.klook.com/zh-TW/search/result/?query=Oasis%20Spa%20Chiang%20Mai]]></description><Point><coordinates>98.9823,18.7868,0</coordinates></Point></Placemark><Placemark><name>Zira Spa</name><description><![CDATA[蘭納風高級SPA，有長時間套餐（如4.5小時Romantic Empire）。<br>地址：8/1 Ratvithi Lane 1, Si Phum, Mueang Chiang Mai 50200<br>價格：泰式60分約990銖起、精油60分約1,300銖起<br>營業：10:00-22:00<br>電話：053-222288<br>預約：https://www.klook.com/zh-TW/search/result/?query=Zira%20Spa]]></description><Point><coordinates>98.9893,18.7907,0</coordinates></Point></Placemark><Placemark><name>Let&#x27;s Relax 塔佩門店</name><description><![CDATA[泰國大型連鎖，品質穩定、營業到午夜，塔佩門旁很好找。<br>地址：97/2-5 Rachadamnoen Rd, Phra Singh, Mueang Chiang Mai 50200<br>價格：泰式2小時約1,200銖起<br>營業：10:00-24:00<br>電話：+66 53 271 339<br>預約：https://www.klook.com/zh-TW/search/result/?query=Let%27s%20Relax%20Chiang%20Mai]]></description><Point><coordinates>98.9912,18.7879,0</coordinates></Point></Placemark><Placemark><name>Lila 塔佩門店</name><description><![CDATA[由前女子監獄局長創立，聘用出獄女性技師的公益連鎖；價格親民、手法紮實。<br>地址：31-33 Rachadamnoen Rd, Si Phum, Mueang Chiang Mai 50200<br>價格：泰式約250～350銖/小時、腳底約200～300銖/小時<br>營業：10:00-22:00<br>電話：+66 83 154 8455<br>預約：https://www.klook.com/en-US/activity/9019-lila-thai-massage-chiang-mai/]]></description><Point><coordinates>98.9923,18.788,0</coordinates></Point></Placemark><Placemark><name>Lila 帕博克勞店</name><description><![CDATA[古城中心三王像附近。<br>地址：1 Intrawarorot Rd Soi 2, Si Phum, Mueang Chiang Mai 50200<br>價格：泰式約250～350銖/小時<br>營業：10:00-22:00<br>預約：https://www.klook.com/en-US/activity/9019-lila-thai-massage-chiang-mai/]]></description><Point><coordinates>98.9866,18.7898,0</coordinates></Point></Placemark><Placemark><name>Lila 拉差威提店</name><description><![CDATA[古城北側，靠近女子監獄按摩中心。<br>地址：4/1 Ratwithi Rd, Si Phum, Mueang Chiang Mai 50200<br>價格：泰式約250～350銖/小時<br>營業：10:00-22:00<br>預約：https://www.klook.com/en-US/activity/9019-lila-thai-massage-chiang-mai/]]></description><Point><coordinates>98.987,18.7906,0</coordinates></Point></Placemark><Placemark><name>Lila 契迪龍寺店</name><description><![CDATA[契迪龍寺旁，Day1 逛完寺廟可順路。<br>地址：162/5 Prapokklao Rd Soi 7, Phra Sing, Mueang Chiang Mai 50200<br>價格：泰式約250～350銖/小時<br>營業：10:00-22:00<br>預約：https://www.klook.com/en-US/activity/9019-lila-thai-massage-chiang-mai/]]></description><Point><coordinates>98.9878,18.7858,0</coordinates></Point></Placemark><Placemark><name>清邁女子監獄按摩（職訓中心）</name><description><![CDATA[技師為即將出獄、受過180小時訓練的受刑人；無法預約、現場排隊，館內禁止拍攝技師。<br>地址：100 Ratwithi Rd, Si Phum, Mueang Chiang Mai 50200<br>價格：泰式約200～250銖/小時<br>營業：週一至五 08:00-16:30、週六日 09:00-16:30]]></description><Point><coordinates>98.988,18.791,0</coordinates></Point></Placemark></Folder><Folder><name>寧曼</name><Placemark><name>Fah Lanna 寧曼店</name><description><![CDATA[寧曼路分店，逛完寧曼咖啡廳後順路。<br>地址：4/1 Nimmanhaemin Rd Soi 15, Su Thep, Mueang Chiang Mai 50200<br>價格：泰式2小時約1,500銖起<br>營業：約10:00-22:00<br>預約：https://www.klook.com/zh-TW/search/result/?query=Fah%20Lanna%20Spa]]></description><Point><coordinates>98.967,18.8012,0</coordinates></Point></Placemark><Placemark><name>Oasis 寧曼店</name><description><![CDATA[One Nimman 步行約3分鐘，雙人精油按摩評價好。<br>地址：11 Nimmana Haeminda Rd Lane 7, Su Thep, Mueang Chiang Mai 50200<br>價格：精油60分約1,350銖起<br>營業：10:00-22:00<br>預約：https://www.klook.com/zh-TW/search/result/?query=Oasis%20Spa%20Nimman]]></description><Point><coordinates>98.9673,18.7992,0</coordinates></Point></Placemark><Placemark><name>Let&#x27;s Relax One Nimman店</name><description><![CDATA[One Nimman 商場內，Day2 寧曼行程最順路。<br>地址：1/5 Nimmanhemin Rd, Su Thep, Mueang Chiang Mai 50200<br>價格：泰式2小時約1,200銖起<br>營業：10:00-24:00<br>電話：+66 52 080 918<br>預約：https://www.klook.com/zh-TW/search/result/?query=Let%27s%20Relax%20One%20Nimman]]></description><Point><coordinates>98.9678,18.8001,0</coordinates></Point></Placemark><Placemark><name>Let&#x27;s Relax 寧曼3巷店</name><description><![CDATA[寧曼路南段分店。<br>地址：11 Nimmanhaemin Rd (Soi 3), Su Thep, Mueang Chiang Mai 50200<br>價格：泰式2小時約1,200銖起<br>營業：10:00-24:00<br>電話：+66 52 076 089<br>預約：https://www.klook.com/zh-TW/search/result/?query=Let%27s%20Relax%20Chiang%20Mai]]></description><Point><coordinates>98.9682,18.7972,0</coordinates></Point></Placemark></Folder><Folder><name>濱江區</name><Placemark><name>RarinJinda 養生SPA</name><description><![CDATA[濱河度假村內的獲獎SPA，有水療、蒸氣與高端療程，適合告別前犒賞自己。<br>地址：14 Charoenrat Rd, Wat Ket, Mueang Chiang Mai 50000<br>價格：約1,000銖起<br>營業：約10:00-22:00（以官網為準）<br>電話：053-303030<br>預約：https://www.klook.com/zh-TW/search/result/?query=RarinJinda]]></description><Point><coordinates>99.0045,18.7935,0</coordinates></Point></Placemark></Folder><Folder><name>清萊</name><Placemark><name>清萊 The Thai Massage</name><description><![CDATA[⭐4.8，現代乾淨、遊客評價極高，建議先預約。<br>地址：近清萊鐘樓（Chiang Rai Clock Tower）<br>價格：泰式/腳底約250～350銖/小時<br>營業：11:00-22:00]]></description><Point><coordinates>99.8318,19.9083,0</coordinates></Point></Placemark><Placemark><name>清萊 Siamese Spa</name><description><![CDATA[⭐4.9，傳統泰式SPA，氣氛寧靜。<br>地址：1055 Sanambin Rd, Mueang Chiang Rai<br>價格：約300～800銖<br>營業：約10:00-22:00]]></description><Point><coordinates>99.836,19.9055,0</coordinates></Point></Placemark><Placemark><name>清萊 Monmueng 蘭納按摩</name><description><![CDATA[⭐4.4，蘭納風格，先洗腳再按。<br>地址：879/7-8 Phahonyothin Rd, Mueang Chiang Rai<br>價格：約300銖/小時<br>營業：約10:00-22:00]]></description><Point><coordinates>99.83,19.907,0</coordinates></Point></Placemark></Folder></Document></kml>
